[{"OBJECT_NAME":"STARLINK-30904","OBJECT_ID":"2023-177P","EPOCH":"2026-03-09T03:14:35.816064","MEAN_MOTION":15.04843361,"ECCENTRICITY":0.00033156,"INCLINATION":43.0031,"RA_OF_ASC_NODE":352.7825,"ARG_OF_PERICENTER":207.9991,"MEAN_ANOMALY":152.0675,"EPHEMERIS_TYPE":0,"CLASSIFICATION_TYPE":"U","NORAD_CAT_ID":58364,"ELEMENT_SET_NO":999,"REV_AT_EPOCH":12815,"BSTAR":0.0028204427,"MEAN_MOTION_DOT":0.00040548,"MEAN_MOTION_DDOT":0},{"OBJECT_NAME":"DIAMANT DEB","OBJECT_ID":"1967-014C","EPOCH":"2026-03-07T10:00:52.471872","MEAN_MOTION":14.08335033,"ECCENTRICITY":0.04404535,"INCLINATION":39.955,"RA_OF_ASC_NODE":162.5873,"ARG_OF_PERICENTER":146.5113,"MEAN_ANOMALY":216.4329,"EPHEMERIS_TYPE":0,"CLASSIFICATION_TYPE":"U","NORAD_CAT_ID":2684,"ELEMENT_SET_NO":999,"REV_AT_EPOCH":92662,"BSTAR":0.001598728,"MEAN_MOTION_DOT":6.727e-5,"MEAN_MOTION_DDOT":0}]
